[{"OBJECT_NAME":"GEISAT PRECURSOR","OBJECT_ID":"2023-084C","EPOCH":"2026-03-09T22:20:25.833120","MEAN_MOTION":15.33054389,"ECCENTRICITY":0.00051675,"INCLINATION":97.6055,"RA_OF_ASC_NODE":206.8263,"ARG_OF_PERICENTER":345.1842,"MEAN_ANOMALY":14.9247,"EPHEMERIS_TYPE":0,"CLASSIFICATION_TYPE":"U","NORAD_CAT_ID":56934,"ELEMENT_SET_NO":999,"REV_AT_EPOCH":15231,"BSTAR":0.00033857167,"MEAN_MOTION_DOT":0.00010736,"MEAN_MOTION_DDOT":0},{"OBJECT_NAME":"STARLINK-32248","OBJECT_ID":"2024-171V","EPOCH":"2026-03-09T22:30:46.406304","MEAN_MOTION":15.30202476,"ECCENTRICITY":8.746e-5,"INCLINATION":53.1588,"RA_OF_ASC_NODE":321.4901,"ARG_OF_PERICENTER":160.7344,"MEAN_ANOMALY":199.369,"EPHEMERIS_TYPE":0,"CLASSIFICATION_TYPE":"U","NORAD_CAT_ID":61219,"ELEMENT_SET_NO":999,"REV_AT_EPOCH":8331,"BSTAR":0.00019426748,"MEAN_MOTION_DOT":5.399e-5,"MEAN_MOTION_DDOT":0}]
